      2.10          N: GNSS NAV DATA                        RINEX VERSION / TYPE
fic2rin                                 01/08/2022 00:17:38 PGM / RUN BY / DATE
                                                            END OF HEADER
21 22  1  8  0  0  0.0 1.556235365570e-04 7.958078640513e-13 0.000000000000e+00
    9.700000000000e+01 6.081250000000e+01 4.480543775490e-09 1.989075521505e+00
    3.147870302200e-06 2.447974868119e-02 5.587935447693e-06 5.153602119446e+03
    5.184000000000e+05 3.445893526077e-07-1.251865259361e+00 1.229345798492e-07
    9.589945487608e-01 2.595625000000e+02-1.030338441938e+00-7.921044229001e-09
   -7.036007363663e-11 1.000000000000e+00 2.191000000000e+03 0.000000000000e+00
    2.400000000000e+00 0.000000000000e+00-1.024454832077e-08 9.700000000000e+01
    5.112000000000e+05 4.000000000000e+00
26 22  1  8  0  0  0.0 1.723491586745e-04 3.410605131648e-12 0.000000000000e+00
    9.700000000000e+01 6.312500000000e+00 5.348079911852e-09-2.573142749998e+00
    1.937150955200e-07 6.745092803612e-03 6.010755896568e-06 5.153678556442e+03
    5.184000000000e+05-6.146728992462e-08 2.963736759875e+00-1.844018697739e-07
    9.392995825579e-01 2.548125000000e+02 3.439677005268e-01-8.454637883890e-09
   -1.717928701483e-10 1.000000000000e+00 2.191000000000e+03 0.000000000000e+00
    3.400000000000e+00 0.000000000000e+00 6.984919309616e-09 9.700000000000e+01
    5.112000000000e+05 4.000000000000e+00
25 22  1  8  0  0  0.0 2.676015719771e-04 5.570655048359e-12 0.000000000000e+00
    1.020000000000e+02 7.281250000000e+00 4.910918845196e-09-1.925051534969e+00
    3.371387720108e-07 1.033022382762e-02 5.522742867470e-06 5.153723241806e+03
    5.184000000000e+05 1.583248376846e-07 3.009988193541e+00-2.048909664154e-08
    9.584723367458e-01 2.700625000000e+02 9.696651653949e-01-8.161054226381e-09
   -5.785955293977e-11 1.000000000000e+00 2.191000000000e+03 0.000000000000e+00
    3.400000000000e+00 0.000000000000e+00 5.587935447693e-09 1.020000000000e+02
    5.112000000000e+05 4.000000000000e+00
17 22  1  8  0  0  0.0 5.583553574979e-04 5.229594535194e-12 0.000000000000e+00
    6.800000000000e+01 1.096875000000e+01 3.944092858727e-09 1.836688206465e+00
    3.632158041000e-07 1.374162104912e-02 9.959563612938e-06 5.153737194061e+03
    5.184000000000e+05 2.160668373108e-07-2.160039047851e+00-2.514570951462e-07
    9.802725971341e-01 1.921562500000e+02-1.511584814089e+00-7.643175511796e-09
   -3.032269163325e-10 1.000000000000e+00 2.191000000000e+03 0.000000000000e+00
    2.400000000000e+00 0.000000000000e+00-1.117587089539e-08 6.800000000000e+01
    5.112000000000e+05 4.000000000000e+00
23 22  1  8  0  0  0.0 1.347949728370e-05-3.865352482535e-12 0.000000000000e+00
    2.260000000000e+02-5.356250000000e+01 4.440542109260e-09-1.019633113183e+00
   -2.758577466011e-06 1.960057765245e-03 4.719942808151e-06 5.153696640015e+03
    5.184000000000e+05-2.421438694000e-08-1.539559099330e-01-8.568167686462e-08
    9.672797940803e-01 2.944375000000e+02 2.903715350851e+00-8.175340535748e-09
   -5.357366012941e-11 1.000000000000e+00 2.191000000000e+03 0.000000000000e+00
    2.400000000000e+00 0.000000000000e+00-8.381903171539e-09 2.260000000000e+02
    5.112000000000e+05 4.000000000000e+00
14 22  1  8  0  0  0.0-6.740679964423e-05-5.570655048359e-12 0.000000000000e+00
    1.120000000000e+02 6.656250000000e+00 5.010565853037e-09-1.668294784340e+00
    3.073364496231e-07 1.297642360441e-03 6.157904863358e-06 5.153639448166e+03
    5.184000000000e+05 1.862645149231e-09 3.055536873547e+00-1.117587089539e-08
    9.544890829187e-01 2.583437500000e+02 3.048941368829e+00-8.324275310908e-09
   -2.096515899731e-10 1.000000000000e+00 2.191000000000e+03 0.000000000000e+00
    2.400000000000e+00 0.000000000000e+00-7.916241884232e-09 6.240000000000e+02
    5.112000000000e+05 4.000000000000e+00
18 22  1  8  0  0  0.0 2.650949172676e-04-7.162270776462e-12 0.000000000000e+00
    1.910000000000e+02 4.090625000000e+01 4.279821128872e-09-1.782235572122e-01
    1.983717083931e-06 2.094048424624e-03 6.074085831642e-06 5.153631919861e+03
    5.184000000000e+05 1.303851604462e-08-1.153589408612e+00-2.235174179077e-08
    9.701985570299e-01 2.680625000000e+02 3.100601725582e+00-8.121766875619e-09
    1.064330047904e-10 1.000000000000e+00 2.191000000000e+03 0.000000000000e+00
    2.400000000000e+00 0.000000000000e+00-8.381903171539e-09 9.590000000000e+02
    5.112000000000e+05 4.000000000000e+00
11 22  1  8  0  0  0.0-2.221995964646e-05-3.558398020687e-11 0.000000000000e+00
    3.800000000000e+01 4.815625000000e+01 4.559832792481e-09 1.851035164027e+00
    2.518296241760e-06 3.168075345457e-04 6.461516022682e-06 5.153757143021e+03
    5.184000000000e+05 4.470348358154e-08-1.117297145259e+00-5.587935447693e-09
    9.615197004350e-01 2.558125000000e+02 2.791175291037e+00-8.256415341411e-09
    1.867934949846e-10 1.000000000000e+00 2.191000000000e+03 0.000000000000e+00
    2.400000000000e+00 6.300000000000e+01-8.847564458847e-09 5.500000000000e+02
    5.112000000000e+05 4.000000000000e+00
28 22  1  8  0  0  0.0 4.267762415111e-04-7.844391802792e-12 0.000000000000e+00
    2.100000000000e+01 5.875000000000e+00 4.569476051305e-09 2.304688447890e+00
    2.719461917877e-07 1.703135517891e-02 5.990266799927e-06 5.153699424744e+03
    5.184000000000e+05 2.197921276093e-07 3.108307615843e+00-3.725290298462e-09
    9.701987750047e-01 2.655000000000e+02-1.295369340190e+00-7.839612265604e-09
   -3.653723620826e-10 1.000000000000e+00 2.191000000000e+03 0.000000000000e+00
    2.400000000000e+00 6.300000000000e+01-1.117587089539e-08 2.100000000000e+01
    5.112000000000e+05 4.000000000000e+00
22 22  1  8  0  0  0.0-4.227487370372e-04 8.867573342286e-12 0.000000000000e+00
    6.400000000000e+01-5.021875000000e+01 5.305935299217e-09 7.273720897843e-01
   -2.836808562279e-06 6.865477771498e-03 4.136934876442e-06 5.153637395859e+03
    5.184000000000e+05 3.539025783539e-08-2.338502988836e-01-1.657754182816e-07
    9.382660718966e-01 2.881875000000e+02-8.618423185748e-01-8.726077761879e-09
   -7.928901699153e-11 1.000000000000e+00 2.191000000000e+03 0.000000000000e+00
    2.400000000000e+00 6.300000000000e+01-1.769512891769e-08 6.400000000000e+01
    5.112000000000e+05 4.000000000000e+00
 8 22  1  7 23 59 44.0-5.123158916831e-05-1.591615728103e-12 0.000000000000e+00
    1.900000000000e+01 2.490625000000e+01 4.418398329740e-09 1.931491214042e+00
    1.486390829086e-06 7.088869228028e-03 9.570270776749e-06 5.153706428528e+03
    5.183840000000e+05 3.166496753693e-08-2.241359938461e+00 2.030283212662e-07
    9.652481095439e-01 1.980625000000e+02 7.420871687378e-02-8.013905239892e-09
   -3.132273328900e-10 1.000000000000e+00 2.191000000000e+03 0.000000000000e+00
    2.400000000000e+00 0.000000000000e+00 5.122274160385e-09 1.900000000000e+01
    5.134800000000e+05 4.000000000000e+00
26 22  1  7 23 59 44.0 1.723500899971e-04 3.410605131648e-12 0.000000000000e+00
    3.000000000000e+00 6.312500000000e+00 5.348079911852e-09-2.575477033288e+00
    1.937150955200e-07 6.745085585862e-03 6.010755896568e-06 5.153678554535e+03
    5.183840000000e+05-6.146728992462e-08 2.963736897389e+00-1.862645149231e-07
    9.392995840208e-01 2.548125000000e+02 3.439682066965e-01-8.454637883890e-09
   -1.714357124141e-10 1.000000000000e+00 2.191000000000e+03 0.000000000000e+00
    2.400000000000e+00 0.000000000000e+00 6.984919309616e-09 3.000000000000e+00
    5.135100000000e+05 4.000000000000e+00
32 22  1  7 23 59 44.0-4.700850695372e-05-5.911715561524e-12 0.000000000000e+00
    3.300000000000e+01-5.146875000000e+01 4.313036798152e-09 2.543553502676e+00
   -2.589076757431e-06 5.388531717472e-03 1.011602580547e-05 5.153766572952e+03
    5.183840000000e+05-2.793967723846e-08 9.127161813097e-01-9.313225746155e-08
    9.578226957885e-01 1.819375000000e+02-2.379825630593e+00-7.862470360593e-09
    1.017899542459e-10 1.000000000000e+00 2.191000000000e+03 0.000000000000e+00
    2.400000000000e+00 0.000000000000e+00 4.656612873077e-10 3.300000000000e+01
    5.144700000000e+05 4.000000000000e+00
25 22  1  7 23 59 44.0 2.676015719771e-04 5.570655048359e-12 0.000000000000e+00
    1.000000000000e+00 7.281250000000e+00 4.910918845196e-09-1.927385808018e+00
    3.371387720108e-07 1.033022184856e-02 5.522742867470e-06 5.153723243713e+03
    5.183840000000e+05 1.583248376846e-07 3.009988328130e+00-1.862645149231e-08
    9.584723338199e-01 2.700625000000e+02 9.696657037487e-01-8.161054226381e-09
   -5.785955293977e-11 1.000000000000e+00 2.191000000000e+03 0.000000000000e+00
    2.400000000000e+00 0.000000000000e+00 5.587935447693e-09 1.000000000000e+00
    5.181000000000e+05 4.000000000000e+00
